OBJECT_NAME,OBJECT_ID,EPOCH,MEAN_MOTION,ECCENTRICITY,INCLINATION,RA_OF_ASC_NODE,ARG_OF_PERICENTER,MEAN_ANOMALY,EPHEMERIS_TYPE,CLASSIFICATION_TYPE,NORAD_CAT_ID,ELEMENT_SET_NO,REV_AT_EPOCH,BSTAR,MEAN_MOTION_DOT,MEAN_MOTION_DDOT
STARLINK-5909,2023-037AA,2026-06-05T20:08:17.534112,14.98330750,.0003075,69.9998,62.2250,267.5251,92.5556,0,U,55938,999,17718,.15727E-4,.95E-6,0
STARLINK-5918,2023-037AB,2026-06-05T19:56:16.213344,14.98330672,.0002945,69.9998,62.1954,264.6354,95.4469,0,U,55939,999,17718,-.49443E-5,-.152E-5,0
STARLINK-5864,2023-037AC,2026-06-05T20:02:16.901376,14.98331952,.0002728,70.0002,62.2098,269.2039,90.8807,0,U,55940,999,17718,.17516E-5,-.72E-6,0
STARLINK-5914,2023-037AD,2026-06-05T23:50:37.150656,14.98330175,.0002444,70.0004,61.9596,268.0029,92.0850,0,U,55941,999,17720,.13837E-4,.72E-6,0
STARLINK-5917,2023-037AE,2026-06-05T21:02:21.110208,14.98330040,.0002873,70.0008,61.9507,267.4519,92.6311,0,U,55942,999,17719,.25861E-4,.216E-5,0
STARLINK-5932,2023-037AF,2026-06-05T19:38:14.247744,14.98330521,.00029073,70.0005,62.1398,266.5681,93.5146,0,U,55943,999,17718,.14933098E-4,.85E-6,0
STARLINK-5926,2023-037AG,2026-06-05T19:32:13.633152,14.98330747,.00026564,70.0012,62.1337,263.0816,97.0041,0,U,55944,999,17718,.35052879E-4,.325E-5,0
STARLINK-5925,2023-037AH,2026-06-06T00:32:53.646432,14.98344347,.0002938,70.0002,61.6591,274.4173,85.6651,0,U,55945,999,17721,.25761E-4,.214E-5,0
STARLINK-5857,2023-037AJ,2026-06-06T00:32:39.088032,14.98329365,.0002814,70.0000,61.6596,270.5776,89.5061,0,U,55946,999,17720,.33733E-4,.31E-5,0
STARLINK-5900,2023-037AL,2026-06-05T23:14:13.710336,14.98332056,.0002881,70.0005,41.9900,270.0369,90.0459,0,U,55948,999,17769,.74862E-5,-.4E-7,0
STARLINK-5899,2023-037AM,2026-06-05T23:26:15.227232,14.98338848,.0003074,69.9998,42.0204,268.8500,91.2307,0,U,55949,999,17769,-.73376E-4,-.969E-5,0
STARLINK-5911,2023-037AN,2026-06-05T19:55:56.947008,14.98330016,.0003055,69.9998,42.3123,269.0307,91.0502,0,U,55950,999,17767,.1858E-4,.129E-5,0
STARLINK-5908,2023-037AP,2026-06-05T20:56:20.486976,14.98330860,.0002753,70.0011,61.9363,270.9808,89.1036,0,U,55951,999,17719,.24175E-4,.196E-5,0
STARLINK-5893,2023-037AQ,2026-06-05T23:14:27.948192,14.98331521,.0003025,70.0004,41.9917,269.4066,90.6747,0,U,55952,999,17769,.61582E-4,.642E-5,0
STARLINK-5892,2023-037AS,2026-06-05T20:56:01.017600,14.98330574,.000287,70.0001,42.0587,267.4872,92.5959,0,U,55954,999,17768,.34269E-4,.316E-5,0
STARLINK-5878,2023-037AT,2026-06-05T19:43:56.058240,14.98327378,.00028727,70.0002,42.2831,270.6515,89.4315,0,U,55955,999,17767,-.3133082E-4,-.467E-5,0
STARLINK-5883,2023-037AU,2026-06-05T20:43:59.790144,14.98329413,.0002867,70.0002,42.0283,269.7266,90.3565,0,U,55956,999,17768,.67145E-5,-.13E-6,0
STARLINK-5884,2023-037AV,2026-06-05T19:49:56.266752,14.98330138,.0003035,70.0003,42.2984,266.1260,93.9552,0,U,55957,999,17767,.33922E-4,.312E-5,0
STARLINK-5928,2023-037AW,2026-06-05T19:37:55.066944,14.98329459,.00030613,69.9998,42.2699,269.2181,90.8627,0,U,55958,999,17767,.12320764E-4,.54E-6,0
STARLINK-5929,2023-037AX,2026-06-05T19:31:54.397920,14.98328046,.0002891,69.9999,42.2562,266.2717,93.8112,0,U,55959,999,17767,.20559061E-4,.152E-5,0
STARLINK-5938,2023-037AY,2026-06-05T19:50:08.581344,14.98351300,.0004159,69.9963,42.2793,266.8495,93.2188,0,U,55960,999,17767,.6541E-4,.688E-5,0
STARLINK-5933,2023-037AZ,2026-06-05T20:50:00.744288,14.98327409,.0002904,70.0000,42.0406,276.0981,83.9847,0,U,55961,999,17768,-.34796E-4,-.508E-5,0
STARLINK-5906,2023-037BA,2026-06-05T23:20:14.253216,14.98331422,.0002886,70.0003,42.0000,269.6847,90.3982,0,U,55962,999,17769,.21889E-4,.168E-5,0
STARLINK-5924,2023-037BB,2026-06-05T19:25:54.170400,14.98325724,.00027948,69.9996,42.2422,271.4472,88.6367,0,U,55963,999,17767,-.31215281E-4,-.465E-5,0
STARLINK-5895,2023-037BC,2026-06-05T20:12:38.817216,15.10183406,.0004804,69.9958,34.6930,207.0042,153.0874,0,U,55964,999,17786,.14993E-2,.2452E-3,0
STARLINK-5894,2023-037BD,2026-06-05T20:37:58.974240,14.98329109,.0002932,70.0000,42.0151,263.1521,96.9304,0,U,55965,999,17768,.10921E-4,.37E-6,0
STARLINK-5905,2023-042A,2026-06-05T14:49:05.621088,15.27576123,.00023205,43.0022,283.3026,276.5635,83.4952,0,U,55986,999,17713,.45197162E-4,.981E-5,0
STARLINK-5915,2023-042B,2026-06-05T01:46:14.191968,15.27578109,.00012341,43.0016,286.1187,271.5480,88.5230,0,U,55987,999,17623,.18686503E-4,.252E-5,0
STARLINK-5916,2023-042C,2026-06-05T01:25:23.147616,15.27578536,.00016307,43.0025,290.2793,271.5940,88.4725,0,U,55988,999,17618,.18853934E-4,.257E-5,0
STARLINK-5947,2023-042D,2026-06-05T15:48:05.728032,15.27576441,.00011499,43.0017,282.7680,270.9057,89.1663,0,U,55989,999,17632,.9740712E-5,.6E-7,0
