[ {"name": "STARLINK-5909", "line1": "1 55938U 23037AA  26156.83909183  .00000095  00000+0  15727-4 0  9995", "line2": "2 55938  69.9998  62.2250 0003075 267.5251  92.5556 14.98330750177188"}, {"name": "STARLINK-5918", "line1": "1 55939U 23037AB  26156.83074321 -.00000152  00000+0 -49443-5 0  9992", "line2": "2 55939  69.9998  62.1954 0002945 264.6354  95.4469 14.98330672177184"}, {"name": "STARLINK-5864", "line1": "1 55940U 23037AC  26156.83491784 -.00000072  00000+0  17516-5 0  9996", "line2": "2 55940  70.0002  62.2098 0002728 269.2039  90.8807 14.98331952177182"}, {"name": "STARLINK-5914", "line1": "1 55941U 23037AD  26156.99348554  .00000072  00000+0  13837-4 0  9990", "line2": "2 55941  70.0004  61.9596 0002444 268.0029  92.0850 14.98330175177206"}, {"name": "STARLINK-5917", "line1": "1 55942U 23037AE  26156.87663322  .00000216  00000+0  25861-4 0  9991", "line2": "2 55942  70.0008  61.9507 0002873 267.4519  92.6311 14.98330040177193"}, {"name": "STARLINK-5932", "line1": "1 55943U 23037AF  26156.81822046  .00000085  00000+0  14933-4 0  9998", "line2": "2 55943  70.0005  62.1398 0002907 266.5681  93.5146 14.98330521177189"}, {"name": "STARLINK-5926", "line1": "1 55944U 23037AG  26156.81404668  .00000325  00000+0  35053-4 0  9998", "line2": "2 55944  70.0012  62.1337 0002656 263.0816  97.0041 14.98330747177187"}, {"name": "STARLINK-5925", "line1": "1 55945U 23037AH  26157.02284313  .00000214  00000+0  25761-4 0  9998", "line2": "2 55945  70.0002  61.6591 0002938 274.4173  85.6651 14.98344347177213"}, {"name": "STARLINK-5857", "line1": "1 55946U 23037AJ  26157.02267463  .00000310  00000+0  33733-4 0  9991", "line2": "2 55946  70.0000  61.6596 0002814 270.5776  89.5061 14.98329365177206"}, {"name": "STARLINK-5900", "line1": "1 55948U 23037AL  26156.96821424 -.00000004  00000+0  74862-5 0  9998", "line2": "2 55948  70.0005  41.9900 0002881 270.0369  90.0459 14.98332056177692"}, {"name": "STARLINK-5899", "line1": "1 55949U 23037AM  26156.97656513 -.00000969  00000+0 -73376-4 0  9994", "line2": "2 55949  69.9998  42.0204 0003074 268.8500  91.2307 14.98338848177697"}, {"name": "STARLINK-5911", "line1": "1 55950U 23037AN  26156.83052022  .00000129  00000+0  18580-4 0  9998", "line2": "2 55950  69.9998  42.3123 0003055 269.0307  91.0502 14.98330016177671"}, {"name": "STARLINK-5908", "line1": "1 55951U 23037AP  26156.87245934  .00000196  00000+0  24175-4 0  9990", "line2": "2 55951  70.0011  61.9363 0002753 270.9808  89.1036 14.98330860177199"}, {"name": "STARLINK-5893", "line1": "1 55952U 23037AQ  26156.96837903  .00000642  00000+0  61582-4 0  9993", "line2": "2 55952  70.0004  41.9917 0003025 269.4066  90.6747 14.98331521177693"}, {"name": "STARLINK-5892", "line1": "1 55954U 23037AS  26156.87223400  .00000316  00000+0  34269-4 0  9996", "line2": "2 55954  70.0001  42.0587 0002870 267.4872  92.5959 14.98330574177689"}, {"name": "STARLINK-5878", "line1": "1 55955U 23037AT  26156.82217660 -.00000467  00000+0 -31331-4 0  9999", "line2": "2 55955  70.0002  42.2831 0002872 270.6515  89.4315 14.98327378177675"}, {"name": "STARLINK-5883", "line1": "1 55956U 23037AU  26156.86388646 -.00000013  00000+0  67145-5 0  9996", "line2": "2 55956  70.0002  42.0283 0002867 269.7266  90.3565 14.98329413177682"}, {"name": "STARLINK-5884", "line1": "1 55957U 23037AV  26156.82634568  .00000312  00000+0  33922-4 0  9996", "line2": "2 55957  70.0003  42.2984 0003035 266.1260  93.9552 14.98330138177677"}, {"name": "STARLINK-5928", "line1": "1 55958U 23037AW  26156.81799846  .00000054  00000+0  12321-4 0  9990", "line2": "2 55958  69.9998  42.2699 0003061 269.2181  90.8627 14.98329459177679"}, {"name": "STARLINK-5929", "line1": "1 55959U 23037AX  26156.81382405  .00000152  00000+0  20559-4 0  9991", "line2": "2 55959  69.9999  42.2562 0002891 266.2717  93.8112 14.98328046177675"}, {"name": "STARLINK-5938", "line1": "1 55960U 23037AY  26156.82648821  .00000688  00000+0  65410-4 0  9990", "line2": "2 55960  69.9963  42.2793 0004159 266.8495  93.2188 14.98351300177678"}, {"name": "STARLINK-5933", "line1": "1 55961U 23037AZ  26156.86806417 -.00000508  00000+0 -34796-4 0  9998", "line2": "2 55961  70.0000  42.0406 0002904 276.0981  83.9847 14.98327409177684"}, {"name": "STARLINK-5906", "line1": "1 55962U 23037BA  26156.97238719  .00000168  00000+0  21889-4 0  9994", "line2": "2 55962  70.0003  42.0000 0002886 269.6847  90.3982 14.98331422177699"}, {"name": "STARLINK-5924", "line1": "1 55963U 23037BB  26156.80965475 -.00000465  00000+0 -31215-4 0  9999", "line2": "2 55963  69.9996  42.2422 0002794 271.4472  88.6367 14.98325724177674"}, {"name": "STARLINK-5895", "line1": "1 55964U 23037BC  26156.84211594  .00024520  00000+0  14993-2 0  9998", "line2": "2 55964  69.9958  34.6930 0004804 207.0042 153.0874 15.10183406177869"}, {"name": "STARLINK-5894", "line1": "1 55965U 23037BD  26156.85971035  .00000037  00000+0  10921-4 0  9999", "line2": "2 55965  70.0000  42.0151 0002932 263.1521  96.9304 14.98329109177684"}, {"name": "STARLINK-5905", "line1": "1 55986U 23042A   26156.61742617  .00000981  00000+0  45197-4 0  9995", "line2": "2 55986  43.0022 283.3026 0002320 276.5635  83.4952 15.27576123177130"}, {"name": "STARLINK-5915", "line1": "1 55987U 23042B   26156.07377537  .00000252  00000+0  18687-4 0  9996", "line2": "2 55987  43.0016 286.1187 0001234 271.5480  88.5230 15.27578109176230"}, {"name": "STARLINK-5916", "line1": "1 55988U 23042C   26156.05929569  .00000257  00000+0  18854-4 0  9994", "line2": "2 55988  43.0025 290.2793 0001630 271.5940  88.4725 15.27578536176187"}, {"name": "STARLINK-5947", "line1": "1 55989U 23042D   26156.65839963  .00000006  00000+0  97407-5 0  9993", "line2": "2 55989  43.0017 282.7680 0001149 270.9057  89.1663 15.27576441176325"}]